"Janus:Saturn X:1980 S 1" "Sol/Saturn"
{
	Texture	 	"janus.*"
	Mesh		"janus.cmod"
	Radius    96 # maximum semi-axis
	MeshCenter [ -1.552 1.358 2.257 ]

	EllipticalOrbit
	{
	Epoch              2453005.5   # 2004 Jan 1 00:00UT
	Period             0.6945      # 0.6947: period set to Janus/Epimetheus average
	SemiMajorAxis      151460
	Eccentricity       0.0067
	Inclination        0.1649
	AscendingNode      8.1758
	LongOfPericenter 248.2856
	MeanLongitude    131.5137
	}

	# orientate meridian at epoch
	UniformRotation
	{
	    Epoch     2453005.5   # 2004 Jan 1 00:00UT
	    MeridianAngle 312
	}

	Albedo 0.6
}

# Hedman et al. "Aegaeon (Saturn LIII), a G-ring object"
# Icarus 2010;207: 433-447
"Aegaeon:Saturn LIII:2008 S 1" "Sol/Saturn" # Update-1
{
	Class "minormoon"
	Texture	"asteroid.jpg"
	Mesh    "asteroid.cms"
	Radius 0.24

	EllipticalOrbit
	{
	Epoch		2454467.00075444
	Period		0.80811114
	SemiMajorAxis	167493.665
	Eccentricity	0.00042277
	Inclination	0.0007
	AscendingNode	350
	LongOfPericenter 312.728
	MeanLongitude	5.641248
	}

	Albedo 0.06  # Estimate
}

"Mimas:Saturn I" "Sol/Saturn"
{
	Texture "mimas.*"
	Radius    198.6

	CustomOrbit "mimas"

	# Overridden by CustomOrbit
	# EllipticalOrbit
	# {
	#    Period         0.9424218
	#    SemiMajorAxis  185520
	#    Eccentricity   0.0202
	#    Inclination    1.53
	#    MeanAnomaly    23
	# }

	BodyFrame { EquatorJ2000 {} }
	CustomRotation "iau-mimas"

	# Overriden by CustomRotation
	# UniformRotation
	# {
	#    Inclination     6.48
	#    AscendingNode 130.66
	#    MeridianAngle 337.46
	# }

	Albedo         0.5
}

"Methone:Saturn XXXII:2004 S 1" "Sol/Saturn" # Update-1
{
	Class "minormoon"
	Texture	 	"asteroid.jpg"
	Mesh		"asteroid.cms"
	Radius		1.6

	EllipticalOrbit
	{
	Epoch		 2453177.5 # 2004 Jun 21 00:00UT
	Period		 1.00971
	SemiMajorAxis	 194251
	Eccentricity	 0.001
	Inclination	 0.018
	AscendingNode	 311.0
	LongOfPericenter 308.0
	MeanLongitude    154.79
	}

	RotationEpoch	 2453177.5 # 2004 Jun 21 00:00UT
	RotationOffset	 335
}

"Anthe:Saturn XLIX:2007 S 4" "Sol/Saturn" # Update-1
{
	Class "minormoon"
	Texture "asteroid.jpg"
	Mesh    "asteroid.cms"
	Radius 1.1

	EllipticalOrbit
	{
	Period          1.041149
	SemiMajorAxis   198105.6
	Eccentricity    0.001102
	Inclination     0.0186
	AscendingNode   251.702
	ArgOfPericenter 349.181
	MeanAnomaly     355.247
	}

	Albedo 0.06  # Estimate
}

"Pallene:Saturn XXXIII:2004 S 2" "Sol/Saturn" # Update-1
{
	Class "minormoon"
	Texture	 	"asteroid.jpg"
	Mesh		"asteroid.cms"
	Radius		2.2

	EllipticalOrbit
	{
	Epoch		 2453177.5 # 2004 Jun 21 00:00UT
	Period		 1.15374
	SemiMajorAxis 	 212283
	Eccentricity	 0.004
	Inclination	 0.181
	AscendingNode	 327.0
	LongOfPericenter 38
	MeanLongitude    85.51
	}

	RotationEpoch	 2453177.5 # 2004 Jun 21 00:00UT
	RotationOffset   266
}

"Enceladus:Saturn II" "Sol/Saturn"
{
	Texture "enceladus.*"
	Radius     249.4

	CustomOrbit "enceladus"

	# Overridden by CustomOrbit
	# EllipticalOrbit
	# {
	#    Period         1.370218
	#    SemiMajorAxis  238020
	#    Eccentricity   0.0045
	#    Inclination    0.02
	#    MeanAnomaly    215
	# }

	BodyFrame { EquatorJ2000 {} }
	CustomRotation "iau-enceladus"

	# Overriden by CustomRotation
	# UniformRotation
	# {
	#    Inclination     6.48
	#    AscendingNode 130.66
	#    MeridianAngle   2.82
	# }

	Albedo         0.99
}

"Tethys:Saturn III" "Sol/Saturn"
{
	Texture "tethys.*"
	Radius     529.9

	CustomOrbit "tethys"

	# Overridden by CustomOrbit
	# EllipticalOrbit
	# {
	#    Period         1.887802
	#    SemiMajorAxis  294660
	#    Eccentricity   0.0
	#    Inclination    1.09
	#    MeanAnomaly    98
	# }

	BodyFrame { EquatorJ2000 {} }
	CustomRotation "iau-tethys"

	# Overriden by CustomRotation
	# UniformRotation
	# {
	#    Inclination     6.48
	#    AscendingNode 130.66
	#    MeridianAngle  10.45
	# }

	Albedo         0.9
}

"Telesto:Saturn XIII:1980 S 13" "Sol/Saturn" # Update-2
# Leading Lagrange point of Tethys
{
	Class "minormoon"
	Texture		"asteroid.jpg"
	SemiAxes [ 15 12.5 7.5 ]

	EllipticalOrbit
	{
	Period		1.887802
	SemiMajorAxis	294660
	Eccentricity	0.0010
	Inclination	1.170	#
	AscendingNode	188.718	#
	ArgOfPericenter	358.944	# J2000.0
	MeanAnomaly     18.554	#
	}

	Obliquity		  1.2
	EquatorAscendingNode	 80.8
	RotationOffset		306.0

	Albedo 1.0
}

"Calypso:Saturn XIV:1980 S 25" "Sol/Saturn" # Update-2
# Trailing Lagrange point of Tethys
{
	Class "minormoon"
	Texture 	"asteroid.jpg"
	SemiAxes [ 15 8 8 ]

	EllipticalOrbit
	{
	Period		1.887802
	SemiMajorAxis	294660
	Eccentricity	0.0005
	Inclination	1.472	#
	AscendingNode	273.860	#
	ArgOfPericenter	186.307	# J2000.0
	MeanAnomaly     348.156	#
	}

	Obliquity		  1.6	#
	EquatorAscendingNode	 12.4	# J2000.0
	RotationOffset		255

	Albedo 0.7
}

